[{"OBJECT_NAME":"SDA_1671","OBJECT_ID":"2025-230H","EPOCH":"2026-03-09T17:44:20.295456","MEAN_MOTION":13.85388686,"ECCENTRICITY":0.00046746,"INCLINATION":81.3008,"RA_OF_ASC_NODE":303.8297,"ARG_OF_PERICENTER":111.686,"MEAN_ANOMALY":248.4795,"EPHEMERIS_TYPE":0,"CLASSIFICATION_TYPE":"U","NORAD_CAT_ID":65981,"ELEMENT_SET_NO":999,"REV_AT_EPOCH":2005,"BSTAR":0.00023629654,"MEAN_MOTION_DOT":2.81e-6,"MEAN_MOTION_DDOT":0},{"OBJECT_NAME":"FENGYUN 1C DEB","OBJECT_ID":"1999-025DRU","EPOCH":"2026-02-27T22:04:17.952672","MEAN_MOTION":13.46821034,"ECCENTRICITY":0.0440473,"INCLINATION":98.5159,"RA_OF_ASC_NODE":120.9349,"ARG_OF_PERICENTER":65.1505,"MEAN_ANOMALY":299.4764,"EPHEMERIS_TYPE":0,"CLASSIFICATION_TYPE":"U","NORAD_CAT_ID":36147,"ELEMENT_SET_NO":999,"REV_AT_EPOCH":61036,"BSTAR":0.0010856,"MEAN_MOTION_DOT":1.156e-5,"MEAN_MOTION_DDOT":0}]
